{
  "type": "FeatureCollection",
  "features": [
    {
      "type": "Feature",
      "properties": {
        "norad_id": 38709,
        "name": "EXACTVIEW-1 (ADS-1B)",
        "group": "resource",
        "lat": -55.819133109106005,
        "lon": 99.45642695603834,
        "alt_km": 813.9532621947565,
        "timestamp": "2025-12-03T19:33:06.636453+00:00",
        "meta_object_name": "EXACTVIEW-1 (ADS-1B)",
        "meta_object_id": "2012-039C",
        "meta_epoch": "2025-12-03T04:39:01.818720",
        "meta_mean_motion": 14.24901374,
        "meta_eccentricity": 0.0011152,
        "meta_inclination": 98.9635,
        "meta_ra_of_asc_node": 85.3837,
        "meta_arg_of_pericenter": 21.4739,
        "meta_mean_anomaly": 338.6905,
        "meta_ephemeris_type": 0,
        "meta_classification_type": "U",
        "meta_norad_cat_id": 38709,
        "meta_element_set_no": 999,
        "meta_rev_at_epoch": 69479,
        "meta_bstar": 0.00011658,
        "meta_mean_motion_dot": 2.26e-06,
        "meta_mean_motion_ddot": 0,
        "tle_line1": "1 38709U 12039C   25337.19377105  .00000226  00000+0  11658-3 0  9998",
        "tle_line2": "2 38709  98.9635  85.3837 0011152  21.4739 338.6905 14.24901374694793"
      },
      "geometry": {
        "type": "Point",
        "coordinates": [
          99.45642695603834,
          -55.819133109106005
        ]
      }
    },
    {
      "type": "Feature",
      "properties": {
        "norad_id": 38755,
        "name": "SPOT 6",
        "group": "resource",
        "lat": -28.59373053645046,
        "lon": 47.24783553341886,
        "alt_km": 704.040353296079,
        "timestamp": "2025-12-03T19:33:06.636463+00:00",
        "meta_object_name": "SPOT 6",
        "meta_object_id": "2012-047A",
        "meta_epoch": "2025-12-03T11:27:07.631424",
        "meta_mean_motion": 14.58588774,
        "meta_eccentricity": 0.0001043,
        "meta_inclination": 98.1585,
        "meta_ra_of_asc_node": 42.4317,
        "meta_arg_of_pericenter": 100.1301,
        "meta_mean_anomaly": 260.0016,
        "meta_ephemeris_type": 0,
        "meta_classification_type": "U",
        "meta_norad_cat_id": 38755,
        "meta_element_set_no": 999,
        "meta_rev_at_epoch": 70452,
        "meta_bstar": 0.00014969,
        "meta_mean_motion_dot": 6.51e-06,
        "meta_mean_motion_ddot": 0,
        "tle_line1": "1 38755U 12047A   25337.47717166  .00000651  00000+0  14969-3 0  9994",
        "tle_line2": "2 38755  98.1585  42.4317 0001043 100.1301 260.0016 14.58588774704521"
      },
      "geometry": {
        "type": "Point",
        "coordinates": [
          47.24783553341886,
          -28.59373053645046
        ]
      }
    },
    {
      "type": "Feature",
      "properties": {
        "norad_id": 39019,
        "name": "PLEIADES 1B",
        "group": "resource",
        "lat": -50.73176139079209,
        "lon": -139.52718271859314,
        "alt_km": 705.5387260199113,
        "timestamp": "2025-12-03T19:33:06.636473+00:00",
        "meta_object_name": "PLEIADES 1B",
        "meta_object_id": "2012-068A",
        "meta_epoch": "2025-12-03T11:54:30.428928",
        "meta_mean_motion": 14.58538011,
        "meta_eccentricity": 0.0001254,
        "meta_inclination": 98.1807,
        "meta_ra_of_asc_node": 50.2935,
        "meta_arg_of_pericenter": 87.4904,
        "meta_mean_anomaly": 272.6439,
        "meta_ephemeris_type": 0,
        "meta_classification_type": "U",
        "meta_norad_cat_id": 39019,
        "meta_element_set_no": 999,
        "meta_rev_at_epoch": 69232,
        "meta_bstar": 0.00015103,
        "meta_mean_motion_dot": 6.56e-06,
        "meta_mean_motion_ddot": 0,
        "tle_line1": "1 39019U 12068A   25337.49618552  .00000656  00000+0  15103-3 0  9998",
        "tle_line2": "2 39019  98.1807  50.2935 0001254  87.4904 272.6439 14.58538011692326"
      },
      "geometry": {
        "type": "Point",
        "coordinates": [
          -139.52718271859314,
          -50.73176139079209
        ]
      }
    },
    {
      "type": "Feature",
      "properties": {
        "norad_id": 39030,
        "name": "GOKTURK 2",
        "group": "resource",
        "lat": -82.30402802472871,
        "lon": -91.01247523788055,
        "alt_km": 652.2164791616397,
        "timestamp": "2025-12-03T19:33:06.636484+00:00",
        "meta_object_name": "GOKTURK 2",
        "meta_object_id": "2012-073A",
        "meta_epoch": "2025-12-03T13:26:51.287712",
        "meta_mean_motion": 14.75270332,
        "meta_eccentricity": 8.01e-05,
        "meta_inclination": 97.6899,
        "meta_ra_of_asc_node": 179.665,
        "meta_arg_of_pericenter": 95.5639,
        "meta_mean_anomaly": 264.5662,
        "meta_ephemeris_type": 0,
        "meta_classification_type": "U",
        "meta_norad_cat_id": 39030,
        "meta_element_set_no": 999,
        "meta_rev_at_epoch": 69566,
        "meta_bstar": 0.00015685,
        "meta_mean_motion_dot": 1.014e-05,
        "meta_mean_motion_ddot": 0,
        "tle_line1": "1 39030U 12073A   25337.56031583  .00001014  00000+0  15685-3 0  9992",
        "tle_line2": "2 39030  97.6899 179.6650 0000801  95.5639 264.5662 14.75270332695662"
      },
      "geometry": {
        "type": "Point",
        "coordinates": [
          -91.01247523788055,
          -82.30402802472871
        ]
      }
    },
    {
      "type": "Feature",
      "properties": {
        "norad_id": 39084,
        "name": "LANDSAT 8",
        "group": "resource",
        "lat": 81.42824176667088,
        "lon": -27.244660775699586,
        "alt_km": 694.2614674541983,
        "timestamp": "2025-12-03T19:33:06.636494+00:00",
        "meta_object_name": "LANDSAT 8",
        "meta_object_id": "2013-008A",
        "meta_epoch": "2025-12-03T10:54:41.068800",
        "meta_mean_motion": 14.57125296,
        "meta_eccentricity": 0.0001066,
        "meta_inclination": 98.2084,
        "meta_ra_of_asc_node": 45.6647,
        "meta_arg_of_pericenter": 88.7475,
        "meta_mean_anomaly": 271.3845,
        "meta_ephemeris_type": 0,
        "meta_classification_type": "U",
        "meta_norad_cat_id": 39084,
        "meta_element_set_no": 999,
        "meta_rev_at_epoch": 66939,
        "meta_bstar": 0.00016061,
        "meta_mean_motion_dot": 6.79e-06,
        "meta_mean_motion_ddot": 0,
        "tle_line1": "1 39084U 13008A   25337.45464200  .00000679  00000+0  16061-3 0  9999",
        "tle_line2": "2 39084  98.2084  45.6647 0001066  88.7475 271.3845 14.57125296669396"
      },
      "geometry": {
        "type": "Point",
        "coordinates": [
          -27.244660775699586,
          81.42824176667088
        ]
      }
    },
    {
      "type": "Feature",
      "properties": {
        "norad_id": 39086,
        "name": "SARAL",
        "group": "resource",
        "lat": 44.897814083414,
        "lon": -9.516716395611054,
        "alt_km": 776.8157545572085,
        "timestamp": "2025-12-03T19:33:06.636504+00:00",
        "meta_object_name": "SARAL",
        "meta_object_id": "2013-009A",
        "meta_epoch": "2025-12-03T12:13:21.592416",
        "meta_mean_motion": 14.32751786,
        "meta_eccentricity": 0.0002626,
        "meta_inclination": 98.5506,
        "meta_ra_of_asc_node": 161.56,
        "meta_arg_of_pericenter": 126.3735,
        "meta_mean_anomaly": 233.7691,
        "meta_ephemeris_type": 0,
        "meta_classification_type": "U",
        "meta_norad_cat_id": 39086,
        "meta_element_set_no": 999,
        "meta_rev_at_epoch": 66758,
        "meta_bstar": 9.9233e-05,
        "meta_mean_motion_dot": 2.27e-06,
        "meta_mean_motion_ddot": 0,
        "tle_line1": "1 39086U 13009A   25337.50927769  .00000227  00000+0  99233-4 0  9994",
        "tle_line2": "2 39086  98.5506 161.5600 0002626 126.3735 233.7691 14.32751786667580"
      },
      "geometry": {
        "type": "Point",
        "coordinates": [
          -9.516716395611054,
          44.897814083414
        ]
      }
    },
    {
      "type": "Feature",
      "properties": {
        "norad_id": 39150,
        "name": "GAOFEN-1",
        "group": "resource",
        "lat": -51.077654667293785,
        "lon": 58.57577859929003,
        "alt_km": 656.4069757231991,
        "timestamp": "2025-12-03T19:33:06.636514+00:00",
        "meta_object_name": "GAOFEN-1",
        "meta_object_id": "2013-018A",
        "meta_epoch": "2025-12-03T11:39:15.988608",
        "meta_mean_motion": 14.76506897,
        "meta_eccentricity": 0.0017651,
        "meta_inclination": 97.9339,
        "meta_ra_of_asc_node": 48.308,
        "meta_arg_of_pericenter": 172.0771,
        "meta_mean_anomaly": 188.0721,
        "meta_ephemeris_type": 0,
        "meta_classification_type": "U",
        "meta_norad_cat_id": 39150,
        "meta_element_set_no": 999,
        "meta_rev_at_epoch": 67936,
        "meta_bstar": 0.00018967,
        "meta_mean_motion_dot": 1.273e-05,
        "meta_mean_motion_ddot": 0,
        "tle_line1": "1 39150U 13018A   25337.48560172  .00001273  00000+0  18967-3 0  9990",
        "tle_line2": "2 39150  97.9339  48.3080 0017651 172.0771 188.0721 14.76506897679369"
      },
      "geometry": {
        "type": "Point",
        "coordinates": [
          58.57577859929003,
          -51.077654667293785
        ]
      }
    }
  ]
}